[{"OBJECT_NAME":"STARLINK-34786","OBJECT_ID":"2025-191N","EPOCH":"2026-03-09T15:09:22.933152","MEAN_MOTION":15.05647063,"ECCENTRICITY":0.000308,"INCLINATION":97.6017,"RA_OF_ASC_NODE":301.5159,"ARG_OF_PERICENTER":76.0667,"MEAN_ANOMALY":284.0902,"EPHEMERIS_TYPE":0,"CLASSIFICATION_TYPE":"U","NORAD_CAT_ID":65391,"ELEMENT_SET_NO":999,"REV_AT_EPOCH":3026,"BSTAR":0.00047339,"MEAN_MOTION_DOT":6.776e-5,"MEAN_MOTION_DDOT":0},{"OBJECT_NAME":"CZ-2D DEB","OBJECT_ID":"2017-060B","EPOCH":"2026-03-09T14:15:36.855648","MEAN_MOTION":14.99543568,"ECCENTRICITY":0.002893,"INCLINATION":97.5408,"RA_OF_ASC_NODE":90.0945,"ARG_OF_PERICENTER":284.1616,"MEAN_ANOMALY":75.6394,"EPHEMERIS_TYPE":0,"CLASSIFICATION_TYPE":"U","NORAD_CAT_ID":44609,"ELEMENT_SET_NO":999,"REV_AT_EPOCH":45025,"BSTAR":0.00057261,"MEAN_MOTION_DOT":7.042e-5,"MEAN_MOTION_DDOT":0}]
